FENGYUN 1C DEB          
1 37456U 99025EJA 17345.62533547  .00001064  00000-0  18459-3 0  9996
2 37456  98.9128 288.3703 0116158 171.8923 188.4192 14.66403771448208
